[{"OBJECT_NAME":"STARLINK-30908","OBJECT_ID":"2023-180Y","EPOCH":"2026-03-09T00:14:20.092128","MEAN_MOTION":15.26739149,"ECCENTRICITY":0.00013014,"INCLINATION":43.0016,"RA_OF_ASC_NODE":56.1487,"ARG_OF_PERICENTER":269.1344,"MEAN_ANOMALY":90.9358,"EPHEMERIS_TYPE":0,"CLASSIFICATION_TYPE":"U","NORAD_CAT_ID":58424,"ELEMENT_SET_NO":999,"REV_AT_EPOCH":12752,"BSTAR":8.2216929e-5,"MEAN_MOTION_DOT":1.946e-5,"MEAN_MOTION_DDOT":0},{"OBJECT_NAME":"TIANHUI 7","OBJECT_ID":"2025-314A","EPOCH":"2026-02-21T16:04:56.557920","MEAN_MOTION":15.26178925,"ECCENTRICITY":0.00016912,"INCLINATION":97.4117,"RA_OF_ASC_NODE":129.4508,"ARG_OF_PERICENTER":83.9579,"MEAN_ANOMALY":276.1853,"EPHEMERIS_TYPE":0,"CLASSIFICATION_TYPE":"U","NORAD_CAT_ID":67300,"ELEMENT_SET_NO":999,"REV_AT_EPOCH":817,"BSTAR":0.00025701477,"MEAN_MOTION_DOT":6.572e-5,"MEAN_MOTION_DDOT":0}]
